STORE NAME,SQUARE FEET,BUFFER SIZE,ZIP CODE,COMMUNITY AREA NAME,COMMUNITY AREA,CENSUS TRACT,LATITUDE,LONGITUDE,LOCATION
BOB'S LIQUORS & GROCERIES,10001.0,A,60644,AUSTIN,25,17031252201,41.8802960895,-87.7524941982,"(41.8802960895, -87.7524941982)"
QUICK STOP FOOD MART,3000.0,B,60645,WEST RIDGE,2,17031020601,42.0047500731,-87.6994227766,"(42.0047500731, -87.6994227766)"
DOMINICK'S #147/1147,68000.0,A,60607,NEAR WEST SIDE,28,17031841900,41.8645211937,-87.6393040996,"(41.8645211937, -87.6393040996)"
CERMAK PRODUCE,25000.0,A,60632,WEST ELSDON,62,17031620200,41.79799187,-87.7234437408,"(41.79799187, -87.7234437408)"
WHOLE FOODS MARKET,4501.0,B,60657,LAKE VIEW,6,17031062500,41.9415658578,-87.66886040290001,"(41.9415658578, -87.6688604029)"
PATEL BROS,5000.0,B,60659,WEST RIDGE,2,17031020602,41.9977473006,-87.69525115809999,"(41.9977473006, -87.6952511581)"
OHIO FOOD MART,3500.0,B,60644,AUSTIN,25,17031251500,41.8910492873,-87.75973283729999,"(41.8910492873, -87.7597328373)"
JOE'S FOOD & LIQUOR,3500.0,B,60625,ALBANY PARK,14,17031140301,41.968445246,-87.7194165758,"(41.968445246, -87.7194165758)"
TWO BLUE FOODS INC,3000.0,B,60628,PULLMAN,50,17031500100,41.712403787,-87.6051275894,"(41.712403787, -87.6051275894)"
JEWEL FOOD STORE #3349,64285.0,A,60639,BELMONT CRAGIN,19,17031831500,41.9262969563,-87.78569482399999,"(41.9262969563, -87.785694824)"
200 LIQUORS,5000.0,B,60653,GRAND BOULEVARD,38,17031381500,41.8094238941,-87.62095180200001,"(41.8094238941, -87.620951802)"
CARNICERIA LA GLORIA,6500.0,B,60632,GAGE PARK,63,17031630500,41.8009692763,-87.68872209870001,"(41.8009692763, -87.6887220987)"
WHOLE FOODS MARKET,11310.0,A,60607,NEAR WEST SIDE,28,17031841900,41.8688897111,-87.6390989281,"(41.8688897111, -87.6390989281)"
PETERSON FOOD MART,2500.0,B,60659,WEST RIDGE,2,17031020802,41.9905852147,-87.6935345218,"(41.9905852147, -87.6935345218)"
STANLEY'S,10001.0,A,60622,WEST TOWN,24,17031842300,41.9105746696,-87.66223522940001,"(41.9105746696, -87.6622352294)"
FOOD 4 LESS,58000.0,A,60639,AUSTIN,25,17031250800,41.9095051477,-87.74695993629999,"(41.9095051477, -87.7469599363)"
COMMERCIAL GROCERY,2500.0,B,60617,SOUTH DEERING,51,17031510100,41.7134978435,-87.55073310659999,"(41.7134978435, -87.5507331066)"
JEWEL FOOD STORE,62603.0,A,60643,MORGAN PARK,75,17031750500,41.680332205300004,-87.66258467870001,"(41.6803322053, -87.6625846787)"
"LA UNICA FOOD MART, INC.",5000.0,B,60660,EDGEWATER,77,17031030200,41.9979934597,-87.6684278857,"(41.9979934597, -87.6684278857)"
MID TOWN FOODS,3520.0,B,60651,HUMBOLDT PARK,23,17031231200,41.9025838739,-87.7236192485,"(41.9025838739, -87.7236192485)"
"7400 S HALSTED FOOD AND LIQUORS, INC.",10001.0,A,60621,ENGLEWOOD,68,17031681300,41.7596745819,-87.6444202389,"(41.7596745819, -87.6444202389)"
THREE BROTHER,10001.0,A,60622,WEST TOWN,24,17031242700,41.8981068159,-87.6993783779,"(41.8981068159, -87.6993783779)"
CUENCA'S BAKERY & GROCERIES,4500.0,B,60641,IRVING PARK,16,17031160300,41.9607675196,-87.73394692709999,"(41.9607675196, -87.7339469271)"
JEWEL FOOD STORES #3262,35000.0,A,60641,PORTAGE PARK,15,17031831700,41.953554438400005,-87.7450553112,"(41.9535544384, -87.7450553112)"
ROMAN BROS 1 INC,10001.0,A,60626,ROGERS PARK,1,17031010702,42.008856472199994,-87.674080374,"(42.0088564722, -87.674080374)"
TAI NAM CORPORATION,10001.0,A,60640,UPTOWN,3,17031031200,41.972213556999996,-87.6596091001,"(41.972213557, -87.6596091001)"
LA JALISCIENCE,3000.0,B,60623,SOUTH LAWNDALE,30,17031840800,41.8443879922,-87.7064970959,"(41.8443879922, -87.7064970959)"
HOLLYWOOD TOWER MKT,3000.0,B,60660,EDGEWATER,77,17031030604,41.985638421,-87.6550943233,"(41.985638421, -87.6550943233)"
A & R FOOD MART,3500.0,B,60639,BELMONT CRAGIN,19,17031191302,41.9205964582,-87.7751926809,"(41.9205964582, -87.7751926809)"
S. S. FOOD & LIQUOR,2703.0,B,60614,LINCOLN PARK,7,17031070101,41.9263716974,-87.6408000783,"(41.9263716974, -87.6408000783)"
S L PANTRY & GRILL,2600.0,B,60640,UPTOWN,3,17031031501,41.969046674699996,-87.654674059,"(41.9690466747, -87.654674059)"
ANDYS FRUIT RANCH,15000.0,A,60625,ALBANY PARK,14,17031140800,41.967629159699996,-87.70830368729999,"(41.9676291597, -87.7083036873)"
DOMINICK'S #1875,39000.0,A,60661,NEAR WEST SIDE,28,17031280100,41.8818156316,-87.64721471700001,"(41.8818156316, -87.647214717)"
SAVE-A-LOT # 866,,A,60623,NORTH LAWNDALE,29,17031843400,41.85128849,-87.72385084,"(41.85128849, -87.72385084)"
W K R B FOOD & LIQUOR,4340.0,B,60619,CHATHAM,44,17031440800,41.7238602893,-87.60436472079999,"(41.7238602893, -87.6043647208)"
OSAMA FOOD MART,2800.0,B,60637,WOODLAWN,42,17031421200,41.7729575221,-87.6099733981,"(41.7729575221, -87.6099733981)"
EL  PASEO  BORICUA,3000.0,B,60622,WEST TOWN,24,17031242600,41.9030542001,-87.6947704208,"(41.9030542001, -87.6947704208)"
FOOD BASKET,2500.0,B,60621,ENGLEWOOD,68,17031681300,41.763181195,-87.64421502100001,"(41.763181195, -87.644215021)"
SHOP & SAVE MARKET,63426.0,A,60638,GARFIELD RIDGE,56,17031560700,41.7960196245,-87.7596833672,"(41.7960196245, -87.7596833672)"
GENES SAUSAGE SHOP AT DELI MEYER,6000.0,B,60625,LINCOLN SQUARE,4,17031040600,41.9677536575,-87.6881717161,"(41.9677536575, -87.6881717161)"
ALDI INC. #96,16117.0,A,60643,WEST PULLMAN,53,17031530300,41.6849606404,-87.64302230959998,"(41.6849606404, -87.6430223096)"
SUPER FURNITURE & FOOD MART,4000.0,B,60609,NEW CITY,61,17031611900,41.7978225881,-87.6645368783,"(41.7978225881, -87.6645368783)"
ALDI FOODS STORE #2,15600.0,A,60639,HERMOSA,20,17031190900,41.931460938200004,-87.74371730700001,"(41.9314609382, -87.743717307)"
LOS POTRILLOS,7000.0,B,60618,AVONDALE,21,17031831100,41.939309516,-87.7185399405,"(41.939309516, -87.7185399405)"
MAYFLOWER FOOD,6000.0,B,60616,ARMOUR SQUARE,34,17031841100,41.8542653039,-87.6321895068,"(41.8542653039, -87.6321895068)"
Municipal Foods,9980.0,B,60622,WEST TOWN,24,17031242500,41.9028592342,-87.6918885843,"(41.9028592342, -87.6918885843)"
SUPERMERCADO TEPECOA GUERRERO,3500.0,B,60629,WEST LAWN,65,17031650302,41.7786847162,-87.7142516633,"(41.7786847162, -87.7142516633)"
ALDI INC STORE #16,20848.0,A,60619,AVALON PARK,45,17031834300,41.736915345999996,-87.59365662180001,"(41.736915346, -87.5936566218)"
ALDI FOODS STORE #26,15540.0,A,60614,LINCOLN PARK,7,17031070700,41.9286950012,-87.67419508309999,"(41.9286950012, -87.6741950831)"
KAPS FOODS,4100.0,B,60632,BRIGHTON PARK,58,17031580100,41.8283836447,-87.69462017,"(41.8283836447, -87.69462017)"
SANABEL GROCERY & BAKERY,6200.0,B,60618,IRVING PARK,16,17031160601,41.9579834025,-87.7079959151,"(41.9579834025, -87.7079959151)"
ALLA'S FOOD,3500.0,B,60617,CALUMET HEIGHTS,48,17031480400,41.726240348699996,-87.57429226110001,"(41.7262403487, -87.5742922611)"
AL BAYAN GROCERY INC.,2500.0,B,60634,BELMONT CRAGIN,19,17031831500,41.9375646502,-87.7860543686,"(41.9375646502, -87.7860543686)"
GENE'S SAUSAGE SHOP & DELI INC,5000.0,B,60641,PORTAGE PARK,15,17031151100,41.9387619658,-87.7604070714,"(41.9387619658, -87.7604070714)"
RIGO'S GROCERY,2500.0,B,60623,SOUTH LAWNDALE,30,17031301702,41.8389367453,-87.7172305546,"(41.8389367453, -87.7172305546)"
WALMART,,A,60628,PULLMAN,50,17031500200,41.69631368,-87.59663224,"(41.69631368, -87.59663224)"
CHICAGO PRODUCE,13500.0,A,60625,ALBANY PARK,14,17031140200,41.9684853733,-87.7158713295,"(41.9684853733, -87.7158713295)"
DIA FOOD & LIQUOR,4500.0,B,60643,MORGAN PARK,75,17031750600,41.684955798400004,-87.659725829,"(41.6849557984, -87.659725829)"
"PARK FOODS OF 71ST STREET,INC.",3500.0,B,60629,CHICAGO LAWN,66,17031660900,41.7647171389,-87.6887509815,"(41.7647171389, -87.6887509815)"
PETE'S PRODUCE,5000.0,B,60619,CALUMET HEIGHTS,48,17031480200,41.7367954576,-87.5862725091,"(41.7367954576, -87.5862725091)"
HAREER FOOD & LIQUOR,2500.0,B,60609,NEW CITY,61,17031612100,41.7945591033,-87.6453134277,"(41.7945591033, -87.6453134277)"
TRADER JOE'S EAST,10615.0,A,60611,NEAR NORTH SIDE,8,17031081500,41.8934080204,-87.6264377426,"(41.8934080204, -87.6264377426)"
EMILIO'S PRODUCE,2500.0,B,60647,LOGAN SQUARE,22,17031221400,41.9225974657,-87.6970976291,"(41.9225974657, -87.6970976291)"
"GRAND PALACE SUPERMARKET, INC",3000.0,B,60619,GREATER GRAND CROSSING,69,17031691000,41.7645736329,-87.6247399651,"(41.7645736329, -87.6247399651)"
ALDI #70,18263.0,A,60620,AUBURN GRESHAM,71,17031710300,41.7549909175,-87.6634041558,"(41.7549909175, -87.6634041558)"
SUPER MERCADO LA CHIQUITA,9500.0,B,60623,SOUTH LAWNDALE,30,17031301600,41.8442791237,-87.71455376629999,"(41.8442791237, -87.7145537663)"
ALDI'S # 26,16550.0,A,60617,EAST SIDE,52,17031520100,41.703662360900005,-87.5257124268,"(41.7036623609, -87.5257124268)"
CARNICERIA RICARDO,5000.0,B,60639,HERMOSA,20,17031200200,41.9315407469,-87.7375725127,"(41.9315407469, -87.7375725127)"
LINDO MICHOACAN,8600.0,B,60625,ALBANY PARK,14,17031140100,41.9685727721,-87.70778770129999,"(41.9685727721, -87.7077877013)"
"SUPER FOOD & LIQUORS, INC.",4000.0,B,60660,EDGEWATER,77,17031030701,41.983563915,-87.657146291,"(41.983563915, -87.657146291)"
NAYAB MART,3125.0,B,60659,WEST RIDGE,2,17031020802,41.9975891244,-87.69183691479999,"(41.9975891244, -87.6918369148)"
EDGEWATER PRODUCE,7400.0,B,60640,EDGEWATER,77,17031030800,41.981971377,-87.6683210323,"(41.981971377, -87.6683210323)"
JEWEL FOOD STORE #3224,29299.0,A,60634,DUNNING,17,17031170100,41.953010233200004,-87.7877071626,"(41.9530102332, -87.7877071626)"
LOS SAUCES GROCERY,2800.0,B,60639,BELMONT CRAGIN,19,17031190402,41.9312882001,-87.7732414533,"(41.9312882001, -87.7732414533)"
THE WAREHOUSE,6000.0,B,60628,WEST PULLMAN,53,17031530200,41.6779860017,-87.6362008551,"(41.6779860017, -87.6362008551)"
ARISTA FOODS,10000.0,A,60607,NEAR WEST SIDE,28,17031833000,41.8834021216,-87.65572529309999,"(41.8834021216, -87.6557252931)"
MORSE FOOD AND MEAT MARKET,17000.0,A,60626,ROGERS PARK,1,17031010600,42.0079949199,-87.6671741467,"(42.0079949199, -87.6671741467)"
"CALABRIA IMPORTS, INC.",3100.0,B,60643,BEVERLY,72,17031720700,41.706473324499996,-87.6693549885,"(41.7064733245, -87.6693549885)"
KOL TUV KOSHER FOODS INC,3000.0,B,60659,WEST RIDGE,2,17031020601,41.9976012808,-87.7036126719,"(41.9976012808, -87.7036126719)"
ALDI INC # 62,12646.0,A,60659,WEST RIDGE,2,17031020702,41.9946209588,-87.6996868624,"(41.9946209588, -87.6996868624)"
JEWEL FOOD  STORE # 3345,60271.0,A,60605,NEAR SOUTH SIDE,33,17031330100,41.8667243541,-87.6259611484,"(41.8667243541, -87.6259611484)"
WASHINGTON GROCERY,4200.0,B,60624,WEST GARFIELD PARK,26,17031261000,41.8718636117,-87.7290573726,"(41.8718636117, -87.7290573726)"
WALGREENS #232,,A,60616,DOUGLAS,35,17031351000,41.8326245,-87.6168411,"(41.8326245, -87.6168411)"
FAIRWAY FOOD,3000.0,B,60649,SOUTH SHORE,43,17031431301,41.7520053919,-87.5540154169,"(41.7520053919, -87.5540154169)"
FRESH MARKET PLACE,20000.0,A,60639,BELMONT CRAGIN,19,17031190602,41.9276476796,-87.76626652110001,"(41.9276476796, -87.7662665211)"
THE FISH KEG INC,4000.0,B,60645,WEST RIDGE,2,17031020100,42.019394742399996,-87.6860204976,"(42.0193947424, -87.6860204976)"
NANCE FOOD MART,4500.0,B,60628,ROSELAND,49,17031491000,41.6951531575,-87.6278202407,"(41.6951531575, -87.6278202407)"
RIVIERA FOODS,3500.0,B,60634,DUNNING,17,17031170800,41.9385912816,-87.8069148007,"(41.9385912816, -87.8069148007)"
J K & S FOOD & LIQUOR,3024.0,B,60621,ENGLEWOOD,68,17031834600,41.7870390747,-87.6378127282,"(41.7870390747, -87.6378127282)"
K & K FOOD & LIQUOR,4200.0,B,60609,NEW CITY,61,17031611000,41.8015768439,-87.6537884728,"(41.8015768439, -87.6537884728)"
WILLIAM'S PRODUCE,6375.0,B,60639,BELMONT CRAGIN,19,17031191301,41.9218942299,-87.78339752,"(41.9218942299, -87.78339752)"
CHATHAM FOOD MARKET,4500.0,B,60619,CHATHAM,44,17031440300,41.750972675300005,-87.6169578802,"(41.7509726753, -87.6169578802)"
JEWEL FOOD STORE #3442,29060.0,A,60630,NORTH PARK,13,17031130200,41.9756241124,-87.7298445616,"(41.9756241124, -87.7298445616)"
CUPBOARD FOOD & LIQUOR,3000.0,B,60632,GAGE PARK,63,17031630300,41.793589179499996,-87.7059457835,"(41.7935891795, -87.7059457835)"
PAULINA MARKET,10000.0,A,60657,LAKE VIEW,6,17031831900,41.945254158400004,-87.6723897932,"(41.9452541584, -87.6723897932)"
CARNICERIA GUANJUATO #3,8800.0,B,60622,WEST TOWN,24,17031241500,41.908115373899996,-87.6677638335,"(41.9081153739, -87.6677638335)"
PETE'S FRESH MARKET,50000.0,A,60617,HEGEWISCH,55,17031550100,41.6810595555,-87.5393675414,"(41.6810595555, -87.5393675414)"
WHOLE FOODS MARKET,6335.0,B,60646,FOREST GLEN,12,17031120200,41.9904947718,-87.7484774142,"(41.9904947718, -87.7484774142)"
E.M. GROCERIES,4500.0,B,60609,NEW CITY,61,17031612000,41.7961289732,-87.6514349028,"(41.7961289732, -87.6514349028)"
SAVE-A-LOT #860,12500.0,A,60629,WEST LAWN,65,17031650301,41.7784159744,-87.7340575715,"(41.7784159744, -87.7340575715)"
"LATIN GROCERY & LIQUOR, INC",10001.0,A,60647,HUMBOLDT PARK,23,17031230400,41.9100494194,-87.72145808389999,"(41.9100494194, -87.7214580839)"
ATHENS GROCERY,2600.0,B,60661,NEAR WEST SIDE,28,17031833100,41.8771621281,-87.6473642897,"(41.8771621281, -87.6473642897)"
JEWEL FOOD STORE #3092,10001.0,A,60617,SOUTH DEERING,51,17031510300,41.7222631981,-87.5829176346,"(41.7222631981, -87.5829176346)"
M & J LIQUOR & GROCERY,2900.0,B,60625,ALBANY PARK,14,17031140301,41.9684345799,-87.7204810114,"(41.9684345799, -87.7204810114)"
THRIFTY FOOD,4000.0,B,60640,UPTOWN,3,17031031501,41.9655577007,-87.65355927899999,"(41.9655577007, -87.653559279)"
DOMINICK'S # 1100,10001.0,A,60608,MCKINLEY PARK,59,17031840400,41.8364683477,-87.6655669021,"(41.8364683477, -87.6655669021)"
SAVE-A-LOT # 854,15000.0,A,60620,AUBURN GRESHAM,71,17031710800,41.7503223874,-87.6441824061,"(41.7503223874, -87.6441824061)"
"CARNICERIA LA GLORIA NO. 2, INC.",7500.0,B,60632,GAGE PARK,63,17031630500,41.7938118263,-87.6931506024,"(41.7938118263, -87.6931506024)"
DOMINICK'S # 113/1113,10001.0,A,60646,NORWOOD PARK,10,17031100200,41.9959852861,-87.78763711709999,"(41.9959852861, -87.7876371171)"
STRACK & VAN TIL,65400.0,A,60647,LOGAN SQUARE,22,17031830900,41.929489274,-87.68368782489999,"(41.929489274, -87.6836878249)"
CORCORANS PANTRY INC,4200.0,B,60660,EDGEWATER,77,17031030701,41.9835447852,-87.6582676725,"(41.9835447852, -87.6582676725)"
JEWEL FOOD STORE #3477,17676.0,A,60656,OHARE,76,17031760802,41.9660114013,-87.8368311691,"(41.9660114013, -87.8368311691)"
SUPERMERCADO EL GUERO NO. 8,14000.0,A,60608,LOWER WEST SIDE,31,17031841300,41.8520256918,-87.6784122433,"(41.8520256918, -87.6784122433)"
3600 COMMISSARY,3800.0,B,60613,LAKE VIEW,6,17031060900,41.9486836744,-87.6436497585,"(41.9486836744, -87.6436497585)"
LA CIENEGA SUPER FOOD INC,10000.0,A,60617,EAST SIDE,52,17031520300,41.699814846500004,-87.53542689049999,"(41.6998148465, -87.5354268905)"
"MORELIA SUPERMARKET #2, INC.",12000.0,A,60639,BELMONT CRAGIN,19,17031190800,41.931406291,-87.7479369735,"(41.931406291, -87.7479369735)"
BURNHAM PLAZA MART,2950.0,B,60605,LOOP,32,17031320600,41.871444196300004,-87.62607513030001,"(41.8714441963, -87.6260751303)"
INTERNATIONAL FOODS NW INC,14000.0,A,60639,HERMOSA,20,17031200200,41.9244726356,-87.736789505,"(41.9244726356, -87.736789505)"
MICHAELS FRESH MARKET,41000.0,A,60653,KENWOOD,39,17031390100,41.809772726599995,-87.5949608909,"(41.8097727266, -87.5949608909)"
M & D VARIETY STORE,4500.0,B,60643,MORGAN PARK,75,17031750100,41.692319626599996,-87.65466321129999,"(41.6923196266, -87.6546632113)"
JEWEL FOOD STORE #3344,63407.0,A,60608,NEAR WEST SIDE,28,17031842900,41.8662541761,-87.66652414010001,"(41.8662541761, -87.6665241401)"
Three Stars Liquors,4600.0,B,60624,WEST GARFIELD PARK,26,17031260400,41.8858229904,-87.73578781139999,"(41.8858229904, -87.7357878114)"
79 FOOD BASKET,3000.0,B,60620,AUBURN GRESHAM,71,17031710700,41.7503211206,-87.65818905290001,"(41.7503211206, -87.6581890529)"
JEWEL-OSCO #3632,62349.0,A,60613,LAKE VIEW,6,17031060400,41.9480045508,-87.6641862307,"(41.9480045508, -87.6641862307)"
ASHLAND FOOD AND LIQUORS,10001.0,A,60643,WASHINGTON HEIGHTS,73,17031730201,41.7213269867,-87.66253365850001,"(41.7213269867, -87.6625336585)"
ROSE-RIDGE FOODS,3000.0,B,60628,ROSELAND,49,17031490902,41.7034152187,-87.62080967909999,"(41.7034152187, -87.6208096791)"
COTTAGE GROVE FOOD MART,4000.0,B,60637,WOODLAWN,42,17031420800,41.7801519592,-87.60577752409999,"(41.7801519592, -87.6057775241)"
T & Z MEAT,3000.0,B,60641,BELMONT CRAGIN,19,17031190100,41.9358159257,-87.74661869719999,"(41.9358159257, -87.7466186972)"
"LA LOMA ""CARNICERIA Y TAQUERIA""",4501.0,B,60639,BELMONT CRAGIN,19,17031190800,41.9270360931,-87.75610618299999,"(41.9270360931, -87.756106183)"
CARNICERIA JIMENEZ #2,19000.0,A,60647,LOGAN SQUARE,22,17031220701,41.924628320500005,-87.72395332100001,"(41.9246283205, -87.723953321)"
HOA NOM CO,4200.0,B,60640,UPTOWN,3,17031031200,41.9731612999,-87.65783317959999,"(41.9731612999, -87.6578331796)"
ROYLA BLUE FOODS,2500.0,B,60632,BRIGHTON PARK,58,17031580700,41.8139376802,-87.68692201399999,"(41.8139376802, -87.686922014)"
JEWEL FOOD STORE #3057,21785.0,A,60636,CHICAGO LAWN,66,17031835000,41.7830611377,-87.68359886969999,"(41.7830611377, -87.6835988697)"
QUINTESSENCE,3000.0,B,60651,HUMBOLDT PARK,23,17031230600,41.909107755,-87.72663414690001,"(41.909107755, -87.7266341469)"
CERMAK PRODUCE,29000.0,A,60618,IRVING PARK,16,17031160501,41.9585967247,-87.7083095759,"(41.9585967247, -87.7083095759)"
OLD WORLD MARKET,10001.0,A,60640,UPTOWN,3,17031031200,41.975475398600004,-87.6596970117,"(41.9754753986, -87.6596970117)"
MEHRAB ZABIHA MEAT & TOBACCO,3000.0,B,60659,WEST RIDGE,2,17031020802,41.9975920168,-87.69166812190001,"(41.9975920168, -87.6916681219)"
KING FOOD & LIQUOR,3750.0,B,60621,ENGLEWOOD,68,17031681100,41.7689262968,-87.644655997,"(41.7689262968, -87.644655997)"
PAULINA SUPER MARKET INC,7000.0,B,60626,ROGERS PARK,1,17031010100,42.020087315,-87.6732345632,"(42.020087315, -87.6732345632)"
ALDI FOODS-STORE #27,12300.0,A,60641,IRVING PARK,16,17031161300,41.9423835134,-87.72901085950001,"(41.9423835134, -87.7290108595)"
ALDI INC STORE #62,9495.0,B,60608,LOWER WEST SIDE,31,17031843200,41.8521511995,-87.67007460190001,"(41.8521511995, -87.6700746019)"
"MY RANCH, INC.",8500.0,B,60640,UPTOWN,3,17031830700,41.9669775683,-87.6549446417,"(41.9669775683, -87.6549446417)"
SAVE-A-LOT  #851,114100.0,A,60628,MORGAN PARK,75,17031750100,41.6995474147,-87.6427519151,"(41.6995474147, -87.6427519151)"
MARIO 'S BUTCHER SHOP FD CNTR,10001.0,A,60644,AUSTIN,25,17031252101,41.8800449808,-87.7704933793,"(41.8800449808, -87.7704933793)"
BOCKWINKELS,7200.0,B,60601,LOOP,32,17031320100,41.886339416,-87.62083615,"(41.886339416, -87.62083615)"
SUPERMERCADO ALEX,9375.0,B,60623,SOUTH LAWNDALE,30,17031301803,41.8369472381,-87.72814236319999,"(41.8369472381, -87.7281423632)"
HALAL MEAT & GROCERY,2500.0,B,60660,ROGERS PARK,1,17031010600,41.9982373871,-87.6661711005,"(41.9982373871, -87.6661711005)"
SOUTH SHORE FOOD MARKET INC.,3000.0,B,60649,SOUTH SHORE,43,17031431200,41.7587872873,-87.5759934845,"(41.7587872873, -87.5759934845)"
SUPERMERCADO EL MEXICANO,4387.0,B,60626,ROGERS PARK,1,17031830600,42.0035849743,-87.67235193190001,"(42.0035849743, -87.6723519319)"
LA PROVIDENCIA FOOD MART,2572.0,B,60608,LOWER WEST SIDE,31,17031310800,41.8542193742,-87.6684581591,"(41.8542193742, -87.6684581591)"
ALDI #79,15150.0,A,60619,AVALON PARK,45,17031834300,41.7527456405,-87.58752348530001,"(41.7527456405, -87.5875234853)"
DOMINICK'S # 86/1086,10001.0,A,60618,NORTH CENTER,5,17031843700,41.9427471952,-87.6883543215,"(41.9427471952, -87.6883543215)"
FAMILY PRIDE,12500.0,A,60655,MOUNT GREENWOOD,74,17031740200,41.7003552742,-87.7205408964,"(41.7003552742, -87.7205408964)"
ALDI INC #58,12571.0,A,60618,NORTH CENTER,5,17031050300,41.961194098600004,-87.68996697040001,"(41.9611940986, -87.6899669704)"
CARNICERIA LA VILLA #2,3289.0,B,60639,BELMONT CRAGIN,19,17031191302,41.919774901,-87.7707265258,"(41.919774901, -87.7707265258)"
TREASURE ISLAND FOODS INC,10001.0,A,60610,NEAR NORTH SIDE,8,17031081000,41.9030261368,-87.6313487722,"(41.9030261368, -87.6313487722)"
JEWEL FOOD STORE #3241,24262.0,A,60622,WEST TOWN,24,17031241500,41.906243703099996,-87.6698622813,"(41.9062437031, -87.6698622813)"
WHOLE FOODS MARKET,74883.0,A,60642,NEAR NORTH SIDE,8,17031842200,41.9093987878,-87.65305069790001,"(41.9093987878, -87.6530506979)"
JOSEPH FOOD MART,3000.0,B,60634,DUNNING,17,17031170500,41.9520185577,-87.83316684340001,"(41.9520185577, -87.8331668434)"
HARPER FOODS,3300.0,B,60637,HYDE PARK,41,17031411100,41.7914105694,-87.58953262780001,"(41.7914105694, -87.5895326278)"
POTASH BROS. SUPERMARKET,12000.0,A,60610,NEAR NORTH SIDE,8,17031080201,41.910117944899994,-87.63149089139999,"(41.9101179449, -87.6314908914)"
Baltimore Food & Liquor,3404.0,B,60633,HEGEWISCH,55,17031550100,41.6529646117,-87.54729865280001,"(41.6529646117, -87.5472986528)"
Supermercado Santos,4000.0,B,60623,SOUTH LAWNDALE,30,17031830500,41.8367499608,-87.7261326568,"(41.8367499608, -87.7261326568)"
CERMAK PRODUCE,10000.0,A,60639,BELMONT CRAGIN,19,17031190200,41.9316414204,-87.74671991059999,"(41.9316414204, -87.7467199106)"
NICKEL LIQUOR & MINI MART INC,10001.0,A,60651,HUMBOLDT PARK,23,17031231200,41.9026337556,-87.7179312389,"(41.9026337556, -87.7179312389)"
TRADER JOE'S EAST,11600.0,A,60614,LINCOLN PARK,7,17031832600,41.914423714099996,-87.65462784299999,"(41.9144237141, -87.654627843)"
WALGREENS #162,,A,60615,HYDE PARK,41,17031410800,41.79529732,-87.58782256,"(41.79529732, -87.58782256)"
"TONY'S FINER FOODS ENTERPRISES, INC.",31000.0,A,60618,IRVING PARK,16,17031160400,41.9561262015,-87.7224828263,"(41.9561262015, -87.7224828263)"
Natural Country Deli,3500.0,B,60631,NORWOOD PARK,10,17031100200,41.9984929696,-87.7890953687,"(41.9984929696, -87.7890953687)"
LOGAN CERTIFIED FOODS CORP,4500.0,B,60647,LOGAN SQUARE,22,17031220400,41.93197047,-87.699931619,"(41.93197047, -87.699931619)"
JEWEL FOOD STORE #3170,30374.0,A,60632,WEST ELSDON,62,17031620200,41.7961975914,-87.7233918834,"(41.7961975914, -87.7233918834)"
MOUNSEF INTERNATIONAL,10001.0,A,60625,ALBANY PARK,14,17031140701,41.9677930872,-87.7086027049,"(41.9677930872, -87.7086027049)"
EL YUNQUE FOOD & LIQUOR,2500.0,B,60647,LOGAN SQUARE,22,17031222500,41.9157610232,-87.6972958109,"(41.9157610232, -87.6972958109)"
"SEVEN NINE ELEVEN FOOD MART, INC.",4300.0,B,60632,ARCHER HEIGHTS,57,17031570400,41.8046211506,-87.7199070655,"(41.8046211506, -87.7199070655)"
A & R FOOD MART,2500.0,B,60639,BELMONT CRAGIN,19,17031191302,41.9205964582,-87.7751926809,"(41.9205964582, -87.7751926809)"
GRAND FOOD MARKET,3952.0,B,60639,BELMONT CRAGIN,19,17031191200,41.9170677465,-87.7560413324,"(41.9170677465, -87.7560413324)"
SAM FOOD AND LIQUOR,3000.0,B,60626,ROGERS PARK,1,17031010502,42.005944816100005,-87.6611747511,"(42.0059448161, -87.6611747511)"
ALMUFLIHI FOOD & LIQUOR,4500.0,B,60609,NEW CITY,61,17031612100,41.7958707987,-87.6453441182,"(41.7958707987, -87.6453441182)"
PETE'S MEAT & GROCERY #2,7500.0,B,60636,WEST ENGLEWOOD,67,17031672000,41.764696121,-87.67359278469999,"(41.764696121, -87.6735927847)"
FIVE STAR CERTIFIED INC,5000.0,B,60620,AUBURN GRESHAM,71,17031711400,41.7359084057,-87.64742288030001,"(41.7359084057, -87.6474228803)"
Dominick's #1703,49320.0,A,60611,NEAR NORTH SIDE,8,17031081403,41.8916898398,-87.6204441348,"(41.8916898398, -87.6204441348)"
SUPER MERCADO EL GUERRO,9375.0,B,60609,NEW CITY,61,17031611300,41.8084712383,-87.6674545133,"(41.8084712383, -87.6674545133)"
PETE'S FRESH SUPERMARKET,,A,60608,SOUTH LAWNDALE,30,17031840700,41.85210065,-87.68905111,"(41.85210065, -87.68905111)"
Chicago Health - Maple Street,2900.0,B,60610,NEAR NORTH SIDE,8,17031081100,41.9019825524,-87.6292631031,"(41.9019825524, -87.6292631031)"
NEW POP-IN,8784.0,B,60612,EAST GARFIELD PARK,27,17031271200,41.8754237451,-87.7058203625,"(41.8754237451, -87.7058203625)"
W & R FOOD & LIQUOR INC,2700.0,B,60649,SOUTH CHICAGO,46,17031460500,41.7514187003,-87.5822058165,"(41.7514187003, -87.5822058165)"
"Kan-Zaman Mart, Inc.",4600.0,B,60616,NEAR SOUTH SIDE,33,17031330100,41.855317671,-87.6237265152,"(41.855317671, -87.6237265152)"
Z & S FOOD & LIQUOR,6000.0,B,60620,AUBURN GRESHAM,71,17031711400,41.7357569772,-87.65782823469999,"(41.7357569772, -87.6578282347)"
DEVON MARKET,18500.0,A,60660,ROGERS PARK,1,17031010600,41.9982282538,-87.66710446649999,"(41.9982282538, -87.6671044665)"
JEWEL FOOD STORE #3176,32294.0,A,60620,WASHINGTON HEIGHTS,73,17031730300,41.7229412182,-87.66286287129999,"(41.7229412182, -87.6628628713)"
ORLEANS MARKET,3002.0,B,60610,NEAR NORTH SIDE,8,17031081800,41.8908642852,-87.6363291879,"(41.8908642852, -87.6363291879)"
CAESAR'S FOODS INC,10001.0,A,60622,WEST TOWN,24,17031242200,41.8977792769,-87.6769588663,"(41.8977792769, -87.6769588663)"
HAPPY FOODS,11000.0,A,60631,EDISON PARK,9,17031090200,42.0043992612,-87.8184857554,"(42.0043992612, -87.8184857554)"
"WAY LOW DISCOUNT FOOD, INC.",2500.0,B,60623,NORTH LAWNDALE,29,17031843100,41.8598459614,-87.705338554,"(41.8598459614, -87.705338554)"
ZEE DOLLAR AND FOOD,3000.0,B,60619,GREATER GRAND CROSSING,69,17031691300,41.758293315,-87.6153541087,"(41.758293315, -87.6153541087)"
J R GROCERY STORE,10001.0,A,60827,RIVERDALE,54,17031540101,41.6517610645,-87.6093666123,"(41.6517610645, -87.6093666123)"
CENTRO MARKET,9100.0,B,60632,GAGE PARK,63,17031630400,41.799257043699996,-87.7035747066,"(41.7992570437, -87.7035747066)"
SAVE-A-LOT  #852,14166.0,A,60649,SOUTH SHORE,43,17031430400,41.7630223653,-87.5863901619,"(41.7630223653, -87.5863901619)"
"TONY'S FINER FOODS ENTERPRISES, INC.",33000.0,A,60641,PORTAGE PARK,15,17031151002,41.9389938243,-87.74269898950001,"(41.9389938243, -87.7426989895)"
FOOD 4 LESS MIDWEST #789,64486.0,A,60609,NEW CITY,61,17031610300,41.809668528,-87.6751156964,"(41.809668528, -87.6751156964)"
ADAMS FOOD MART,2500.0,B,60644,AUSTIN,25,17031251600,41.8910335471,-87.7553096457,"(41.8910335471, -87.7553096457)"
DOLLAR & LINEN,5800.0,B,60620,AUBURN GRESHAM,71,17031711300,41.7355890742,-87.66995172629998,"(41.7355890742, -87.6699517263)"
ALDI INC STORE 14,15000.0,A,60644,AUSTIN,25,17031831400,41.8673156479,-87.76559794299999,"(41.8673156479, -87.765597943)"
RICHWELL MARKET,7500.0,B,60616,LOWER WEST SIDE,31,17031843200,41.8566571782,-87.6387533453,"(41.8566571782, -87.6387533453)"
WALGREENS #05034,,A,60629,CHICAGO LAWN,66,17031660600,41.77842134,-87.70297606,"(41.77842134, -87.70297606)"
DOMINICK'S # 12/0012,10001.0,A,60660,EDGEWATER,77,17031030101,41.9911817534,-87.6601550832,"(41.9911817534, -87.6601550832)"
BUDGET FINER FOODS,3200.0,B,60626,ROGERS PARK,1,17031010502,42.0027261067,-87.66093836639999,"(42.0027261067, -87.6609383664)"
DISCOUNT PANTRY CORPORATION,3600.0,B,60629,WEST LAWN,65,17031650301,41.7784929073,-87.727327519,"(41.7784929073, -87.727327519)"
PAR BIRDIE FOODS,6000.0,B,60659,WEST RIDGE,2,17031020500,41.9979009735,-87.68637821790001,"(41.9979009735, -87.6863782179)"
JEWEL FOOD STORE #3441,22443.0,A,60657,LAKE VIEW,6,17031062600,41.9354720327,-87.66865454309999,"(41.9354720327, -87.6686545431)"
CHARLIES  SUPERMARKET INC.,2500.0,B,60618,IRVING PARK,16,17031160601,41.9611144263,-87.7025869386,"(41.9611144263, -87.7025869386)"
JEWEL FOOD STORE #3501,56010.0,A,60618,NORTH CENTER,5,17031843700,41.943187373200004,-87.6883020207,"(41.9431873732, -87.6883020207)"
4343 PETES FRESH MARKET,57000.0,A,60632,ARCHER HEIGHTS,57,17031570100,41.8139143113,-87.72366494190001,"(41.8139143113, -87.7236649419)"
LA FERIA GROCERY,10001.0,A,60617,SOUTH DEERING,51,17031510100,41.7189121563,-87.55117429719999,"(41.7189121563, -87.5511742972)"
POTASH BROS INC,10001.0,A,60610,NEAR NORTH SIDE,8,17031081201,41.898878197399995,-87.6281111483,"(41.8988781974, -87.6281111483)"
IMPERIAL TOWER MARKET,6031.0,B,60613,UPTOWN,3,17031031400,41.960019954,-87.6469060276,"(41.960019954, -87.6469060276)"
MOO & OINK INC,21500.0,A,60644,AUSTIN,25,17031251800,41.8805838854,-87.7470529414,"(41.8805838854, -87.7470529414)"
Save-A-Lot #882,16290.0,A,60637,WASHINGTON PARK,40,17031400800,41.7803216101,-87.61713538040001,"(41.7803216101, -87.6171353804)"
MARKET IN THE PARK,5049.0,B,60615,KENWOOD,39,17031390700,41.8028797781,-87.5818436939,"(41.8028797781, -87.5818436939)"
SUN LIQUORS,4350.0,B,60660,EDGEWATER,77,17031030102,41.9944657079,-87.6583928132,"(41.9944657079, -87.6583928132)"
SUPERMERCADO CHAPALA,10001.0,A,60626,ROGERS PARK,1,17031010702,42.0119757995,-87.67438405780001,"(42.0119757995, -87.6743840578)"
SUPERMERCADO GELA'S,3125.0,B,60623,SOUTH LAWNDALE,30,17031301701,41.8424245295,-87.7170303155,"(41.8424245295, -87.7170303155)"
FARM SUPER MARKET,3000.0,B,60659,WEST RIDGE,2,17031020901,41.9976669579,-87.68721345600001,"(41.9976669579, -87.687213456)"
ALDI INC #53,13981.0,A,60638,GARFIELD RIDGE,56,17031560700,41.796380489499995,-87.75734757219999,"(41.7963804895, -87.7573475722)"
ALDI INC #64,11760.0,A,60647,WEST TOWN,24,17031831000,41.91358779,-87.6822028354,"(41.91358779, -87.6822028354)"
EDDIE & SON FOOD &LIQ.,2500.0,B,60647,HUMBOLDT PARK,23,17031230400,41.9100926711,-87.71757535319999,"(41.9100926711, -87.7175753532)"
LA CASA DEL PUEBLO INC,10001.0,A,60608,LOWER WEST SIDE,31,17031310600,41.8574527464,-87.66168833110001,"(41.8574527464, -87.6616883311)"
ALDI'S,15255.0,A,60640,UPTOWN,3,17031830700,41.9637889643,-87.6566064924,"(41.9637889643, -87.6566064924)"
FAIRPLAY FINER FOOD,10001.0,A,60608,LOWER WEST SIDE,31,17031841300,41.8519838396,-87.6857857042,"(41.8519838396, -87.6857857042)"
LARAMIE BAKERY & DELI,12331.0,A,60634,DUNNING,17,17031170800,41.9389859689,-87.8069290648,"(41.9389859689, -87.8069290648)"
B & H FOOD & GROCERY,4500.0,B,60612,EAST GARFIELD PARK,27,17031837300,41.872350043000004,-87.7032726418,"(41.872350043, -87.7032726418)"
FRUTERIA EL MERCADO,5500.0,B,60623,SOUTH LAWNDALE,30,17031840800,41.8409331636,-87.7072241769,"(41.8409331636, -87.7072241769)"
MANDY'S LIQUOR,3000.0,B,60640,LINCOLN SQUARE,4,17031830800,41.9686561373,-87.678438479,"(41.9686561373, -87.678438479)"
ALDI #28,15154.0,A,60632,BRIGHTON PARK,58,17031630300,41.8034457131,-87.7039862718,"(41.8034457131, -87.7039862718)"
THE MARKET PLACE FOODSTORE,16900.0,A,60614,LINCOLN PARK,7,17031070102,41.9327439571,-87.6422188452,"(41.9327439571, -87.6422188452)"
EDDIE'S FOOD MART,4500.0,B,60636,WEST ENGLEWOOD,67,17031670600,41.7794611564,-87.67143667149999,"(41.7794611564, -87.6714366715)"
RIVERSIDE DELI,5500.0,B,60622,LOGAN SQUARE,22,17031832300,41.916186115,-87.6701349439,"(41.916186115, -87.6701349439)"
FOODSMART,13800.0,A,60647,LOGAN SQUARE,22,17031222500,41.9173585451,-87.69934106870001,"(41.9173585451, -87.6993410687)"
SUPERMARKET & TAQUERIA CARO,4524.0,B,60638,GARFIELD RIDGE,56,17031560300,41.807460877800004,-87.747060571,"(41.8074608778, -87.747060571)"
H & Z GROCERY STORE,10001.0,A,60647,LOGAN SQUARE,22,17031220702,41.928345251399996,-87.71867089950001,"(41.9283452514, -87.7186708995)"
SEVEN ELEVEN,3000.0,B,60613,LAKE VIEW,6,17031060100,41.961523824699995,-87.66603985559999,"(41.9615238247, -87.6660398556)"
ALDI FOODS #91,15565.0,A,60624,WEST GARFIELD PARK,26,17031260800,41.8806594115,-87.72219366889999,"(41.8806594115, -87.7221936689)"
ALDI'S,11179.0,A,60707,BELMONT CRAGIN,19,17031831500,41.9237604017,-87.7887477626,"(41.9237604017, -87.7887477626)"
LORETO GROCERY,4499.0,B,60632,BRIGHTON PARK,58,17031842800,41.8100014783,-87.6931813523,"(41.8100014783, -87.6931813523)"
LUX 2 FOOD & LIQUOR,2500.0,B,60620,AUBURN GRESHAM,71,17031710200,41.7561626996,-87.6528196032,"(41.7561626996, -87.6528196032)"
AROUND THE CLOCK,3000.0,B,60626,ROGERS PARK,1,17031010202,42.0192651821,-87.6715720734,"(42.0192651821, -87.6715720734)"
COUNTY FAIR FOODS,10001.0,A,60643,MORGAN PARK,75,17031750300,41.6972382088,-87.68147480420001,"(41.6972382088, -87.6814748042)"
LAWNDALE FOOD MARKET,6000.0,B,60623,NORTH LAWNDALE,29,17031292200,41.8588339683,-87.7178671863,"(41.8588339683, -87.7178671863)"
"HYDE PARK PRODUCE, LTD",10000.0,A,60615,HYDE PARK,41,17031410700,41.7995768022,-87.59551292190001,"(41.7995768022, -87.5955129219)"
KHALIL FOOD & LIQUOR,3000.0,B,60628,ROSELAND,49,17031490700,41.707218139,-87.6277515583,"(41.707218139, -87.6277515583)"
ALDI FOODS STORE #90B,15565.0,A,60634,BELMONT CRAGIN,19,17031190402,41.9321576791,-87.76642459879999,"(41.9321576791, -87.7664245988)"
SUNRISE FOOD AND LIQUORS,7000.0,B,60651,HUMBOLDT PARK,23,17031231500,41.895314759,-87.72019984149999,"(41.895314759, -87.7201998415)"
BOULEVARD FOOD & LIQUOR LLC,3350.0,B,60634,PORTAGE PARK,15,17031150402,41.9531825896,-87.77525937530001,"(41.9531825896, -87.7752593753)"
SAVE-A-LOT  # 858,12000.0,A,60617,SOUTH CHICAGO,46,17031460302,41.7447308395,-87.5540391375,"(41.7447308395, -87.5540391375)"
ADA FOODS,4500.0,B,60636,WEST ENGLEWOOD,67,17031671800,41.764894181399995,-87.6573078048,"(41.7648941814, -87.6573078048)"
THE NEIGHBORHOOD STORE,4200.0,B,60620,AUBURN GRESHAM,71,17031711000,41.7427877337,-87.6533842508,"(41.7427877337, -87.6533842508)"
"S & K FOOD & LIQUOR, INC.",10001.0,A,60649,SOUTH SHORE,43,17031431302,41.758992761799995,-87.5603778108,"(41.7589927618, -87.5603778108)"
AM-PM FOOD MART & CELLULAR,3500.0,B,60617,AVALON PARK,45,17031450300,41.7371462539,-87.5770809934,"(41.7371462539, -87.5770809934)"
"MORELIA SUPERMARKET, INC.",8000.0,B,60645,WEST RIDGE,2,17031020200,42.0141839829,-87.6903783498,"(42.0141839829, -87.6903783498)"
DOMINICKS #2890,55129.0,A,60640,EDGEWATER,77,17031030706,41.976481667600005,-87.6548397772,"(41.9764816676, -87.6548397772)"
WALMART,,A,60609,NEW CITY,61,17031842600,41.80876829,-87.66098821,"(41.80876829, -87.66098821)"
ALDI'S #93,16890.0,A,60620,ASHBURN,70,17031700100,41.756035091,-87.6828583216,"(41.756035091, -87.6828583216)"
TREASURE ISLAND FOODS,10001.0,A,60657,LAKE VIEW,6,17031062000,41.9448282656,-87.6458934884,"(41.9448282656, -87.6458934884)"
OLIVE MOUNT MART,3000.0,B,60629,CHICAGO LAWN,66,17031660400,41.7789401249,-87.71186857229999,"(41.7789401249, -87.7118685723)"
JEWEL FOOD STORE #3407,19238.0,A,60640,EDGEWATER,77,17031030900,41.982189884600004,-87.66865162799999,"(41.9821898846, -87.668651628)"
FURTERIA EL SERRANITO,2500.0,B,60609,MCKINLEY PARK,59,17031590700,41.8248606245,-87.6700230192,"(41.8248606245, -87.6700230192)"
PEORIA PACKING LTD,8000.0,B,60607,NEAR WEST SIDE,28,17031833000,41.88558042,-87.6589569108,"(41.88558042, -87.6589569108)"
CARNICERIA JIMENEZ INC,16000.0,A,60639,HUMBOLDT PARK,23,17031230500,41.9099252471,-87.73155721629999,"(41.9099252471, -87.7315572163)"
EXTRA VALUE FOOD & LIQUOR,5000.0,B,60636,WEST ENGLEWOOD,67,17031670800,41.7796146658,-87.6640774893,"(41.7796146658, -87.6640774893)"
GOLDMORE FOOD,2500.0,B,60609,NEW CITY,61,17031611700,41.801127809099995,-87.6740803441,"(41.8011278091, -87.6740803441)"
SOLID GOLD,3300.0,B,60624,NORTH LAWNDALE,29,17031838700,41.866119494,-87.720927574,"(41.866119494, -87.720927574)"
Food 4 Less Midwest,62000.0,A,60636,WEST ENGLEWOOD,67,17031671500,41.7657907704,-87.66396688649999,"(41.7657907704, -87.6639668865)"
CLARENDON FOOD MART INC,10000.0,A,60613,UPTOWN,3,17031031400,41.9580048015,-87.6496537356,"(41.9580048015, -87.6496537356)"
JEWEL FOOD STORE #3043,37641.0,A,60616,DOUGLAS,35,17031351000,41.8330447382,-87.6146113644,"(41.8330447382, -87.6146113644)"
LA PLAMA,15000.0,A,60632,BRIGHTON PARK,58,17031580501,41.8175793077,-87.69832058629999,"(41.8175793077, -87.6983205863)"
SUPER MAS MARKET,32000.0,A,60609,NEW CITY,61,17031842600,41.8087654583,-87.6611701084,"(41.8087654583, -87.6611701084)"
CARNICERIA EL PORVENIR,2500.0,B,60628,WEST PULLMAN,53,17031530100,41.684063198000004,-87.6187429679,"(41.684063198, -87.6187429679)"
RJ Liquors,3550.0,B,60639,BELMONT CRAGIN,19,17031190602,41.9240644164,-87.76766048639999,"(41.9240644164, -87.7676604864)"
JEWEL FOOD STORE #3282,24922.0,A,60630,PORTAGE PARK,15,17031150300,41.966797111999995,-87.76729948059999,"(41.966797112, -87.7672994806)"
PRESTIGE LIQUORS,2900.0,B,60636,CHICAGO LAWN,66,17031661000,41.7644955967,-87.6833842675,"(41.7644955967, -87.6833842675)"
"THREE ROOSTERS, INC.",4830.0,B,60628,WEST PULLMAN,53,17031530501,41.6709717654,-87.64153304959999,"(41.6709717654, -87.6415330496)"
BUY -N- SAVE,8000.0,B,60628,ROSELAND,49,17031490902,41.7071353216,-87.61824172989999,"(41.7071353216, -87.6182417299)"
A & B FOOD MARKET INC,10001.0,A,60651,AUSTIN,25,17031251100,41.9021664421,-87.75318234870001,"(41.9021664421, -87.7531823487)"
JEWEL FOOD STORE #3514,20285.0,A,60657,LAKE VIEW,6,17031061800,41.9463846516,-87.6465248633,"(41.9463846516, -87.6465248633)"
MR G'S FOOD & LIQUOR,3000.0,B,60637,WASHINGTON PARK,40,17031400400,41.7894298575,-87.6178403398,"(41.7894298575, -87.6178403398)"
ALDI INC STORE #90,16340.0,A,60620,AUBURN GRESHAM,71,17031711500,41.7302972736,-87.6433090924,"(41.7302972736, -87.6433090924)"
SUPERMERCADO LA VILLA,9000.0,B,60639,BELMONT CRAGIN,19,17031190800,41.924272713600004,-87.75211503770001,"(41.9242727136, -87.7521150377)"
CERMAK PRODUCE,14000.0,A,60639,HERMOSA,20,17031831200,41.9169344398,-87.7363871475,"(41.9169344398, -87.7363871475)"
MELISSA'S FOOD & LIQUORS INC,3500.0,B,60651,HUMBOLDT PARK,23,17031230700,41.9050594546,-87.72395138450001,"(41.9050594546, -87.7239513845)"
LA MERCED INC,10001.0,A,60623,SOUTH LAWNDALE,30,17031301801,41.8440327965,-87.73243286469999,"(41.8440327965, -87.7324328647)"
J & A ORIENTAL FOOD MART,10001.0,A,60639,BELMONT CRAGIN,19,17031191302,41.9237993545,-87.77063323639999,"(41.9237993545, -87.7706332364)"
WEST HAVEN MARKET & GRILL,3200.0,B,60612,NEAR WEST SIDE,28,17031837800,41.8831944724,-87.6804664902,"(41.8831944724, -87.6804664902)"
SAHAR INTERNATIONAL SUPERMARKET,7900.0,B,60625,ALBANY PARK,14,17031140100,41.9699575396,-87.7083728782,"(41.9699575396, -87.7083728782)"
WALGREENS #2073,,A,60609,FULLER PARK,37,17031835600,41.79623488,-87.63040492,"(41.79623488, -87.63040492)"
"PARK PACKING OF CHICAGO, INC.",3500.0,B,60609,NEW CITY,61,17031842600,41.8191594443,-87.66423535540001,"(41.8191594443, -87.6642353554)"
"R & S DISCOUNT FOOD, WINE, & LIQUOR",2800.0,B,60647,LOGAN SQUARE,22,17031830900,41.932046850999996,-87.68897868629999,"(41.932046851, -87.6889786863)"
CERMAK PRODUCE #5 LTD,10000.0,A,60608,MCKINLEY PARK,59,17031840300,41.8313499001,-87.67584784790002,"(41.8313499001, -87.6758478479)"
NATIONAL FRUIT STOP,3000.0,B,60625,ALBANY PARK,14,17031140701,41.9682556374,-87.7168773813,"(41.9682556374, -87.7168773813)"
DOMINICK'S #160/1698,72000.0,A,60626,ROGERS PARK,1,17031010202,42.0192885501,-87.6750585094,"(42.0192885501, -87.6750585094)"
JAMAICA FOOD & LIQUOR INC,2500.0,B,60653,GRAND BOULEVARD,38,17031380100,41.8170297652,-87.6068579199,"(41.8170297652, -87.6068579199)"
"CARNICERIA LA MEJOR PRODUCE, INC.",4500.0,B,60618,AVONDALE,21,17031210602,41.9343143994,-87.7157719991,"(41.9343143994, -87.7157719991)"
WHOLE FOODS MARKET,30591.0,A,60610,NEAR NORTH SIDE,8,17031081600,41.894968673200005,-87.62939917870001,"(41.8949686732, -87.6293991787)"
BARI,2500.0,B,60622,WEST TOWN,24,17031243500,41.8912101212,-87.6555602414,"(41.8912101212, -87.6555602414)"
JEWEL FOOD STORE #3454,25490.0,A,60618,NORTH CENTER,5,17031050200,41.959100433,-87.6823922417,"(41.959100433, -87.6823922417)"
JOLANTA'S INTERNATIONAL DELI,10001.0,A,60630,JEFFERSON PARK,11,17031110400,41.9727914969,-87.7763718583,"(41.9727914969, -87.7763718583)"
EL MILAGRO,5500.0,B,60623,SOUTH LAWNDALE,30,17031300900,41.844687327399996,-87.702102936,"(41.8446873274, -87.702102936)"
HARVESTIME FOODS,8750.0,B,60625,LINCOLN SQUARE,4,17031040201,41.9686702259,-87.6951627475,"(41.9686702259, -87.6951627475)"
CHICAGO GROCERS,2500.0,B,60659,WEST RIDGE,2,17031020500,41.997945885300005,-87.683568705,"(41.9979458853, -87.683568705)"
NOOR MEAT,3000.0,B,60659,WEST RIDGE,2,17031020802,41.997573805900004,-87.69254859879999,"(41.9975738059, -87.6925485988)"
TRATTORIA ISABELLA,3365.0,B,60661,NEAR WEST SIDE,28,17031280100,41.8862936679,-87.6426439206,"(41.8862936679, -87.6426439206)"
DOLLAR DEALS & UP,2500.0,B,60639,HERMOSA,20,17031200402,41.9188912639,-87.726465315,"(41.9188912639, -87.726465315)"
Save-A-Lot #886,13000.0,A,60620,GREATER GRAND CROSSING,69,17031691200,41.7509837901,-87.6289614545,"(41.7509837901, -87.6289614545)"
L'APPETITO,2900.0,B,60611,NEAR NORTH SIDE,8,17031081300,41.8989485417,-87.62397498770001,"(41.8989485417, -87.6239749877)"
"TONY'S FINER FOODS ENTERPRISES, INC.",21000.0,A,60647,LOGAN SQUARE,22,17031220902,41.924490094,-87.717288131,"(41.924490094, -87.717288131)"
JEWEL FOOD STORE #3139,22295.0,A,60617,EAST SIDE,52,17031520400,41.7028060951,-87.5277040116,"(41.7028060951, -87.5277040116)"
SAVE-A-LOT  #859,12000.0,A,60624,WEST GARFIELD PARK,26,17031260700,41.8745373122,-87.7255969017,"(41.8745373122, -87.7255969017)"
MICELI'S DELI & FOOD MART,4000.0,B,60608,LOWER WEST SIDE,31,17031841300,41.847020464,-87.6831995522,"(41.847020464, -87.6831995522)"
DOMINICK'S # 130/1130,10001.0,A,60649,SOUTH SHORE,43,17031430600,41.7659900011,-87.57378733670001,"(41.7659900011, -87.5737873367)"
MA'S & PA'S GROCERY SNACK SHOP,4500.0,B,60612,EAST GARFIELD PARK,27,17031271800,41.8708776439,-87.6961668842,"(41.8708776439, -87.6961668842)"
JEWEL FOOD STORE #3181,30745.0,A,60620,CHATHAM,44,17031842400,41.7361451282,-87.62691784399999,"(41.7361451282, -87.626917844)"
4700 PETE'S FRESH MARKET,45000.0,A,60632,BRIGHTON PARK,58,17031842800,41.8080472717,-87.70411882229999,"(41.8080472717, -87.7041188223)"
LA GUERRERENSE,3000.0,B,60639,HERMOSA,20,17031831200,41.9170000028,-87.73098926450001,"(41.9170000028, -87.7309892645)"
LOUIS' GROCERIES,,A,60619,GREATER GRAND CROSSING,69,17031691400,41.75655031,-87.60548285,"(41.75655031, -87.60548285)"
"SZYMANSKI BROS, INC",3000.0,B,60634,PORTAGE PARK,15,17031150502,41.9531497374,-87.77751748770001,"(41.9531497374, -87.7775174877)"
SUPERMERCADO GUADALAJARA #2,6000.0,B,60623,SOUTH LAWNDALE,30,17031300800,41.8498575327,-87.70534347709999,"(41.8498575327, -87.7053434771)"
JEWEL FOOD STORE #3455,23660.0,A,60613,UPTOWN,3,17031032100,41.9613977799,-87.6545929748,"(41.9613977799, -87.6545929748)"
CARNICERIA DEL RIO,3000.0,B,60608,SOUTH LAWNDALE,30,17031840700,41.8520347381,-87.6936969081,"(41.8520347381, -87.6936969081)"
FIESTA SUPERMARCADO,14500.0,A,60629,CHICAGO LAWN,66,17031660500,41.7788185771,-87.70590357549999,"(41.7788185771, -87.7059035755)"
ALDI INC #83,16300.0,A,60652,ASHBURN,70,17031700302,41.7409110654,-87.7409228594,"(41.7409110654, -87.7409228594)"
WALLY'S INTERNATIONAL MARKET,10001.0,A,60618,AVONDALE,21,17031831100,41.9401778125,-87.72585843479999,"(41.9401778125, -87.7258584348)"
ZIAD CERTIFIED FOODS,2500.0,B,60653,GRAND BOULEVARD,38,17031381200,41.809322870100004,-87.61333552120001,"(41.8093228701, -87.6133355212)"
SUPERMERCADO EL CUBANO INC,2750.0,B,60609,NEW CITY,61,17031611200,41.803782323,-87.6646953279,"(41.803782323, -87.6646953279)"
FAIRPLAY FINER FOODS INC,10001.0,A,60609,NEW CITY,61,17031842600,41.809629768,-87.6457075651,"(41.809629768, -87.6457075651)"
RITE PRICE FOOD,3600.0,B,60651,AUSTIN,25,17031250600,41.9022506897,-87.76595092379999,"(41.9022506897, -87.7659509238)"
KAMDAR PLAZA INC,5500.0,B,60659,WEST RIDGE,2,17031020602,41.9977219015,-87.6966411029,"(41.9977219015, -87.6966411029)"
J & J EUROPEAN DELI,3000.0,B,60630,PORTAGE PARK,15,17031150401,41.9677648001,-87.7770202043,"(41.9677648001, -87.7770202043)"
WORLD FRESH MARKET,5500.0,B,60659,WEST RIDGE,2,17031020602,41.997817925999996,-87.6912518856,"(41.997817926, -87.6912518856)"
CITY GROCERY,5000.0,B,60611,NEAR NORTH SIDE,8,17031081500,41.8894653288,-87.6265092736,"(41.8894653288, -87.6265092736)"
P & I FOOD & LIQUOR INC.,3000.0,B,60651,HUMBOLDT PARK,23,17031230600,41.9027068139,-87.7310180698,"(41.9027068139, -87.7310180698)"
DANNY'S FRESH MARKET,14405.0,A,60647,LOGAN SQUARE,22,17031221500,41.921096268,-87.68767101290001,"(41.921096268, -87.6876710129)"
PETE'S MARKET,10001.0,A,60629,GAGE PARK,63,17031630900,41.789112548,-87.7035797266,"(41.789112548, -87.7035797266)"
"TONY'S FINER FOODS ENTERPRISES, INC.",35000.0,A,60639,BELMONT CRAGIN,19,17031190602,41.9258928802,-87.7662048258,"(41.9258928802, -87.7662048258)"
HAPPY FOODS,11500.0,A,60646,FOREST GLEN,12,17031120200,41.997860013899995,-87.7634457986,"(41.9978600139, -87.7634457986)"
DOMINICK'S FINER FOODS - STORE # 2775,54963.0,A,60622,WEST TOWN,24,17031243000,41.8957852296,-87.6779308926,"(41.8957852296, -87.6779308926)"
ALDI'S #47,16370.0,A,60609,NEW CITY,61,17031842600,41.8087413884,-87.6629116285,"(41.8087413884, -87.6629116285)"
AWAMI BAZAAR & ZABIHA MEAT,2500.0,B,60659,WEST RIDGE,2,17031020500,41.9978536894,-87.6890642657,"(41.9978536894, -87.6890642657)"
MAKOLA AFRICAN SUPERMARKET #2,3500.0,B,60640,UPTOWN,3,17031031502,41.9636502775,-87.6546221904,"(41.9636502775, -87.6546221904)"
ALDI #30,15154.0,A,60623,SOUTH LAWNDALE,30,17031840800,41.8381141517,-87.7049944648,"(41.8381141517, -87.7049944648)"
Laxi Liquor,3200.0,B,60707,MONTCLARE,18,17031831600,41.923680700300004,-87.79867612860001,"(41.9236807003, -87.7986761286)"
"EDDIE'S SUNSHINE FOOD & LIQUOR,  INC.",3000.0,B,60628,ROSELAND,49,17031490901,41.6978179235,-87.6210110036,"(41.6978179235, -87.6210110036)"
"SUPER DOLLAR AND UP 4, INC.",4000.0,B,60636,WEST ENGLEWOOD,67,670300,41.7868526305,-87.6646155793,"(41.7868526305, -87.6646155793)"
CENTRAL PARK FOODS INC,8000.0,B,60651,HUMBOLDT PARK,23,17031231200,41.9024736738,-87.71681746530001,"(41.9024736738, -87.7168174653)"
NEW LA ESTRELLA FOODS INC.,5800.0,B,60629,CHICAGO LAWN,66,17031660600,41.7789315569,-87.6984170935,"(41.7789315569, -87.6984170935)"
STEVE FOOD & LIQUOR,3500.0,B,60636,WEST ENGLEWOOD,67,17031670900,41.7833341838,-87.65474327940001,"(41.7833341838, -87.6547432794)"
"KRAKUS DELI,  INC",3500.0,B,60641,PORTAGE PARK,15,17031151001,41.9458951009,-87.7566458523,"(41.9458951009, -87.7566458523)"
MLB FOOD,2500.0,B,60637,WOODLAWN,42,17031421200,41.7729559039,-87.6100578109,"(41.7729559039, -87.6100578109)"
ALDI'S FOODS BELMONT,18600.0,A,60618,AVONDALE,21,17031831100,41.9394051879,-87.7109005918,"(41.9394051879, -87.7109005918)"
BERBATE FRUIT MARKET,2500.0,B,60634,DUNNING,17,17031170300,41.9527315616,-87.7866984426,"(41.9527315616, -87.7866984426)"
Hegewisch Fruit Market Inc.,7800.0,B,60633,HEGEWISCH,55,17031550100,41.6551885903,-87.54699941850001,"(41.6551885903, -87.5469994185)"
FRESH BUY FOODS INC,26000.0,A,60637,WOODLAWN,42,17031420700,41.7796646515,-87.6142509361,"(41.7796646515, -87.6142509361)"
GAYTAN GROCERY STORE,3500.0,B,60623,SOUTH LAWNDALE,30,17031301801,41.8403086304,-87.73310705899999,"(41.8403086304, -87.733107059)"
NORTHWEST FOOD & LIQUOR,3180.0,B,60639,AUSTIN,25,17031250200,41.9096148952,-87.7554779679,"(41.9096148952, -87.7554779679)"
TAI WAH GROCERY,3200.0,B,60616,ARMOUR SQUARE,34,17031841100,41.8521271977,-87.63214399569999,"(41.8521271977, -87.6321439957)"
ALDI,16615.0,A,60637,WOODLAWN,42,17031420800,41.7743058812,-87.60564802530001,"(41.7743058812, -87.6056480253)"
"RICH'S DELI & LIQUOR, INC",3400.0,B,60622,WEST TOWN,24,17031242400,41.8974609845,-87.68673855770001,"(41.8974609845, -87.6867385577)"
WALGREENS # 06297,,A,60638,CLEARING,64,17031640300,41.77795816,-87.7722942,"(41.77795816, -87.7722942)"
TREASURE ISLAND FOODS,10001.0,A,60611,NEAR NORTH SIDE,8,17031081401,41.8947983703,-87.6158666457,"(41.8947983703, -87.6158666457)"
DISCOUNT MEAT COMPANY,4160.0,B,60620,CHATHAM,44,17031842400,41.7506874405,-87.6333809292,"(41.7506874405, -87.6333809292)"
ORIENTAL ASIA MARKET INC.,7500.0,B,60640,UPTOWN,3,17031031200,41.9725559281,-87.6550576698,"(41.9725559281, -87.6550576698)"
VIET HOA PLAZA,6174.0,B,60640,UPTOWN,3,17031031200,41.9731740098,-87.6569923349,"(41.9731740098, -87.6569923349)"
POLONIA FOOD MART,10001.0,A,60622,LOGAN SQUARE,22,17031832300,41.917870715599996,-87.67748061520001,"(41.9178707156, -87.6774806152)"
ALDI INC #10,15540.0,A,60632,ARCHER HEIGHTS,57,17031570100,41.8114515422,-87.72357465440001,"(41.8114515422, -87.7235746544)"
ONE STOP,2500.0,B,60624,WEST GARFIELD PARK,26,17031260500,41.8804994508,-87.735595961,"(41.8804994508, -87.735595961)"
EL BARRIO GROCERY,10001.0,A,60647,HUMBOLDT PARK,23,17031230400,41.9100080401,-87.7254384633,"(41.9100080401, -87.7254384633)"
AARAY GROCERY,10001.0,A,60614,LINCOLN PARK,7,17031070200,41.929209817,-87.648746265,"(41.929209817, -87.648746265)"
BROADWAY SUPERMARKET,15000.0,A,60640,UPTOWN,3,17031031200,41.9711711808,-87.659580975,"(41.9711711808, -87.659580975)"
FOODSMART,3500.0,B,60647,LOGAN SQUARE,22,17031220602,41.9318527752,-87.7129012497,"(41.9318527752, -87.7129012497)"
SAFAH FOOD & LIQUOR INC,3000.0,B,60636,ENGLEWOOD,68,17031681400,41.7648964002,-87.6539648335,"(41.7648964002, -87.6539648335)"
MORGAN FOOD CORP LLC,3500.0,B,60621,ENGLEWOOD,68,17031681000,41.7741289538,-87.6496459973,"(41.7741289538, -87.6496459973)"
THE PRODUCE CENTER,12000.0,A,60646,NORWOOD PARK,10,17031100100,41.9872696368,-87.7785157048,"(41.9872696368, -87.7785157048)"
DOMINICKS #2889,48735.0,A,60625,LINCOLN SQUARE,4,17031040202,41.9768950984,-87.69227966780001,"(41.9768950984, -87.6922796678)"
WALGREENS #226,,A,60623,SOUTH LAWNDALE,30,17031301802,41.84414469,-87.72477825,"(41.84414469, -87.72477825)"
ALDI INC.#94,10001.0,A,60636,CHICAGO LAWN,66,17031835000,41.7839658423,-87.6836233778,"(41.7839658423, -87.6836233778)"
JOE'S FOOD AND LIQUOR DEPOT,4000.0,B,60639,BELMONT CRAGIN,19,17031190602,41.9239918266,-87.7722891067,"(41.9239918266, -87.7722891067)"
TREASURE ISLAND FOODS,10001.0,A,60614,LINCOLN PARK,7,17031832500,41.919899684,-87.6618055364,"(41.919899684, -87.6618055364)"
JEWEL FOOD STORE #3296,29421.0,A,60656,NORWOOD PARK,10,17031100500,41.9745429477,-87.8113468842,"(41.9745429477, -87.8113468842)"
THREE R FOOD,3000.0,B,60618,ALBANY PARK,14,17031140800,41.961370945,-87.6966693474,"(41.961370945, -87.6966693474)"
CERMAK PRODUCE,15000.0,A,60608,LOWER WEST SIDE,31,17031843200,41.8521678636,-87.66897504069999,"(41.8521678636, -87.6689750407)"
PUERTO RICO FOOD & LIQUORS,2500.0,B,60622,WEST TOWN,24,17031242500,41.8992215766,-87.69173811620001,"(41.8992215766, -87.6917381162)"
CARNICERIA LA AZTECA,2500.0,B,60626,ROGERS PARK,1,17031010702,42.0109629527,-87.6742146577,"(42.0109629527, -87.6742146577)"
WHOLE FOODS MARKET,19740.0,A,60613,LAKE VIEW,6,17031061000,41.948519803,-87.6496701249,"(41.948519803, -87.6496701249)"
HONG KONG MARKET,46300.0,A,60616,ARMOUR SQUARE,34,17031841100,41.8482371659,-87.6409555275,"(41.8482371659, -87.6409555275)"
WALGREENS #2923,,A,60637,GREATER GRAND CROSSING,69,17031842500,41.77929761,-87.61574988,"(41.77929761, -87.61574988)"
JEWEL FOOD STORE #3030,31951.0,A,60649,SOUTH SHORE,43,17031834200,41.7578056585,-87.58626825799999,"(41.7578056585, -87.586268258)"
CERMAK PRODUCE NO.4,17000.0,A,60647,WEST TOWN,24,17031241000,41.9101322404,-87.69460039389999,"(41.9101322404, -87.6946003939)"
RAINBOW FINER FOOD & LIQUOR,3500.0,B,60636,WEST ENGLEWOOD,67,17031671200,41.778922405500005,-87.66435268110001,"(41.7789224055, -87.6643526811)"
MUNCHIES ON LARRABEE,2500.0,B,60610,NEAR NORTH SIDE,8,17031842200,41.9008485875,-87.64325553649999,"(41.9008485875, -87.6432555365)"
ALDI INC STORE #95,37000.0,A,60617,SOUTH DEERING,51,17031510300,41.722466241999996,-87.56667305209999,"(41.722466242, -87.5666730521)"
MI MEXICO GROCERY,2600.0,B,60629,CHICAGO LAWN,66,17031835000,41.786376343200004,-87.688776514,"(41.7863763432, -87.688776514)"
ALDI FOODS STORE #30,14860.0,A,60639,LOGAN SQUARE,22,17031220702,41.9282078544,-87.72815855799999,"(41.9282078544, -87.728158558)"
KEY FOOD LIQUOR,3800.0,B,60827,RIVERDALE,54,17031540101,41.6519728186,-87.61708373629999,"(41.6519728186, -87.6170837363)"
EUROPA GALLERIA INC,6500.0,B,60610,NEAR NORTH SIDE,8,17031081800,41.8956627719,-87.637220715,"(41.8956627719, -87.637220715)"
PERSONAL LIQUORS INC,6000.0,B,60624,WEST GARFIELD PARK,26,17031260600,41.8805391992,-87.73221603729999,"(41.8805391992, -87.7322160373)"
SAVE-A-LOT   #856,12000.0,A,60639,AUSTIN,25,17031250700,41.9092745667,-87.765187785,"(41.9092745667, -87.765187785)"
GILMART'S  FOOD & LIQUOR,10001.0,A,60632,ARCHER HEIGHTS,57,17031570300,41.8014000331,-87.7260437419,"(41.8014000331, -87.7260437419)"
ANAR INC,10001.0,A,60619,CHATHAM,44,17031440101,41.7512179339,-87.6014014102,"(41.7512179339, -87.6014014102)"
CLYBOURN MARKET,3500.0,B,60618,NORTH CENTER,5,17031051400,41.9325791837,-87.678327456,"(41.9325791837, -87.678327456)"
SERRELLI'S FOODS,4000.0,B,60707,AUSTIN,25,17031250500,41.909229895,-87.78712882069999,"(41.909229895, -87.7871288207)"
FOOD 4 LESS,63506.0,A,60620,CHATHAM,44,17031842400,41.7363800456,-87.62750921899999,"(41.7363800456, -87.627509219)"
DOMINICK'S #153/2153,68000.0,A,60610,NEAR NORTH SIDE,8,17031080400,41.9038839611,-87.6394372016,"(41.9038839611, -87.6394372016)"
SUPER JIM'S,4500.0,B,60651,AUSTIN,25,17031251100,41.9021472222,-87.7552393884,"(41.9021472222, -87.7552393884)"
ALDI FOODS -STORE #04,12500.0,A,60651,HUMBOLDT PARK,23,17031836600,41.8956153135,-87.7067053251,"(41.8956153135, -87.7067053251)"
A & G LIQUORS,4800.0,B,60637,GREATER GRAND CROSSING,69,17031690400,41.7678312792,-87.6247659397,"(41.7678312792, -87.6247659397)"
BUSY BEE SUPERMARKET,2500.0,B,60636,WEST ENGLEWOOD,67,17031670200,41.7904800194,-87.66434506569999,"(41.7904800194, -87.6643450657)"
LUCIANO'S GROCERY-18TH ST,6000.0,B,60608,LOWER WEST SIDE,31,17031310800,41.8578565675,-87.66941959559999,"(41.8578565675, -87.6694195956)"
CRESPO'S FOOD MART,2800.0,B,60624,WEST GARFIELD PARK,26,17031260600,41.880504995,-87.7351228503,"(41.880504995, -87.7351228503)"
ARMITAGE PRODUCE INC,14340.0,A,60647,LOGAN SQUARE,22,17031221100,41.9175624189,-87.7117551087,"(41.9175624189, -87.7117551087)"
RODRIGUEZ FRUITS & VEGETABLE,2626.0,B,60623,SOUTH LAWNDALE,30,17031300700,41.8463298609,-87.71255139969999,"(41.8463298609, -87.7125513997)"
JEWEL FOOD STORE #3368,31600.0,A,60610,NEAR NORTH SIDE,8,17031081600,41.8924213661,-87.6282348711,"(41.8924213661, -87.6282348711)"
JEWEL FOOD STORE #3721,49513.0,A,60638,GARFIELD RIDGE,56,17031560800,41.794354853200005,-87.77052715209999,"(41.7943548532, -87.7705271521)"
SUPERMERCADO LA CHIQUTIA # 4,10001.0,A,60623,SOUTH LAWNDALE,30,17031301701,41.8435348913,-87.72438217940001,"(41.8435348913, -87.7243821794)"
INTERNATIONAL SUPERMARKET INC,7500.0,B,60609,NEW CITY,61,17031610400,41.8105656774,-87.6651705169,"(41.8105656774, -87.6651705169)"
WEST LAWN FOODS,17000.0,A,60629,WEST ELSDON,62,17031620300,41.7866084095,-87.72313002889999,"(41.7866084095, -87.7231300289)"
"LA NUEVA IMAGEN GROCERY, INC.",3000.0,B,60623,SOUTH LAWNDALE,30,17031300600,41.8462971046,-87.71591642950001,"(41.8462971046, -87.7159164295)"
S & T PROVISION CO INC,10001.0,A,60655,MOUNT GREENWOOD,74,17031740300,41.691445910300004,-87.71567310389999,"(41.6914459103, -87.7156731039)"
PARKSHORE MARKET LTD,2860.0,B,60601,LOOP,32,17031320100,41.8861772806,-87.6155996011,"(41.8861772806, -87.6155996011)"
CARNICERIA GUANAJUATO,9325.0,B,60639,BELMONT CRAGIN,19,17031190702,41.9241891458,-87.75822974120001,"(41.9241891458, -87.7582297412)"
JARDAN FOOD & LIQUOR,9500.0,B,60637,WASHINGTON PARK,40,17031400400,41.7943249341,-87.6185206053,"(41.7943249341, -87.6185206053)"
LOS CUATRO HERMANOS GROCERY,10001.0,A,60608,LOWER WEST SIDE,31,17031310600,41.8562022212,-87.6577449724,"(41.8562022212, -87.6577449724)"
EDDY'S FOOD MART,4000.0,B,60626,ROGERS PARK,1,17031010300,42.019164625,-87.668397288,"(42.019164625, -87.668397288)"
MAYFAIR MARKET PLACE,12000.0,A,60630,ALBANY PARK,14,140500,41.9672666701,-87.72814704780001,"(41.9672666701, -87.7281470478)"
The Unit,3500.0,B,60649,SOUTH SHORE,43,17031431302,41.7589223174,-87.5628760391,"(41.7589223174, -87.5628760391)"
MOROLEON FOODS #2 INC.,3025.0,B,60632,BRIGHTON PARK,58,17031580700,41.8157711158,-87.6893858973,"(41.8157711158, -87.6893858973)"
SUPERMERCADO GUERRERO,3800.0,B,60623,SOUTH LAWNDALE,30,17031841700,41.8519083675,-87.70287598899999,"(41.8519083675, -87.702875989)"
STOP & GO FOOD MART,3250.0,B,60643,MORGAN PARK,75,17031750600,41.6895747692,-87.6627231456,"(41.6895747692, -87.6627231456)"
ALDI INC #92,19410.0,A,60621,ENGLEWOOD,68,17031680900,41.7799200473,-87.6409255107,"(41.7799200473, -87.6409255107)"
FIRST CHOICE MARKET,10000.0,A,60617,SOUTH CHICAGO,46,17031461000,41.7299778712,-87.5503825944,"(41.7299778712, -87.5503825944)"
KORDIAN'S MARKET,4610.0,B,60630,JEFFERSON PARK,11,17031110300,41.9759840467,-87.7865613104,"(41.9759840467, -87.7865613104)"
"DOMINICK'S Finer Foods, Inc. #1695",26819.0,A,60614,LINCOLN PARK,7,17031071100,41.9252682757,-87.6534875641,"(41.9252682757, -87.6534875641)"
ALDI INC #06,14000.0,A,60630,ALBANY PARK,14,17031140302,41.9719812207,-87.72798689790001,"(41.9719812207, -87.7279868979)"
ALL STAR FOOD & LIQUOR,4200.0,B,60608,BRIDGEPORT,60,17031600700,41.841484039099996,-87.6580219776,"(41.8414840391, -87.6580219776)"
SHOP WISE FOOD,6000.0,B,60628,ROSELAND,49,17031490700,41.7071739515,-87.6314024214,"(41.7071739515, -87.6314024214)"
"H & A FOOD MARKET, INC.",2500.0,B,60621,ENGLEWOOD,68,17031681000,41.7795645849,-87.6499748357,"(41.7795645849, -87.6499748357)"
GEMELOS FOOD/ CHECK CASHING SERVICES,6600.0,B,60632,BRIGHTON PARK,58,17031580502,41.815432001,-87.69579779,"(41.815432001, -87.69579779)"
ALDI #32,16924.0,A,60614,LINCOLN PARK,7,17031832600,41.914423714099996,-87.65462784299999,"(41.9144237141, -87.654627843)"
SUPERIOR NUT & CANDY  CO.I INC.,10005.0,A,60609,NEW CITY,61,17031842600,41.820957494,-87.6537783218,"(41.820957494, -87.6537783218)"
LA PERLA TAPATIA BAKERY,3000.0,B,60639,HUMBOLDT PARK,23,17031230500,41.909919754,-87.73197125700001,"(41.909919754, -87.731971257)"
"RIO GRANDE FRUIT MARKET, INC.",3750.0,B,60647,HUMBOLDT PARK,23,17031230800,41.9099107051,-87.7143855102,"(41.9099107051, -87.7143855102)"
MIARA'S CONT'L PASTRY DELI INC,5000.0,B,60634,DUNNING,17,17031171000,41.9452338231,-87.8029266385,"(41.9452338231, -87.8029266385)"
J AND P FINER FOODS,4500.0,B,60618,IRVING PARK,16,17031160501,41.9609885935,-87.7156463163,"(41.9609885935, -87.7156463163)"
NEIL'S FOOD,3500.0,B,60620,AUBURN GRESHAM,71,17031710100,41.7528304183,-87.64395052479999,"(41.7528304183, -87.6439505248)"
CHICAGO FOOD CORP,10000.0,A,60646,NORTH PARK,13,17031130200,41.9859279924,-87.7286634185,"(41.9859279924, -87.7286634185)"
JEWEL FOOD STORE #3443,25356.0,A,60640,EDGEWATER,77,17031030703,41.9794282549,-87.6598058547,"(41.9794282549, -87.6598058547)"
JEWEL FOOD STORE #3470,24815.0,A,60618,AVONDALE,21,17031831100,41.946057604,-87.7082301098,"(41.946057604, -87.7082301098)"
5659 W. DIVERSEY,4000.0,B,60639,BELMONT CRAGIN,19,17031190602,41.9311354035,-87.76861213059999,"(41.9311354035, -87.7686121306)"
MACIAS PRODUCE INC.,7000.0,B,60617,SOUTH CHICAGO,46,17031833900,41.7327335949,-87.55117278360001,"(41.7327335949, -87.5511727836)"
DILILAH GROCERY,3125.0,B,60608,LOWER WEST SIDE,31,17031310800,41.8539678804,-87.6708701882,"(41.8539678804, -87.6708701882)"
DOMINICK'S # 304/2304,10001.0,A,60614,LINCOLN PARK,7,17031070700,41.9278717231,-87.67325881459999,"(41.9278717231, -87.6732588146)"
OUTLET KINGDOM,4000.0,B,60608,BRIDGEPORT,60,17031839700,41.831074943699996,-87.64597111219999,"(41.8310749437, -87.6459711122)"
LA INTERNATIONAL,3000.0,B,60632,BRIGHTON PARK,58,17031580502,41.815300693699996,-87.7020416008,"(41.8153006937, -87.7020416008)"
PETE'S PRODUCE,10000.0,A,60620,AUBURN GRESHAM,71,17031711400,41.7357448514,-87.6587177057,"(41.7357448514, -87.6587177057)"
"CALMA OPTIMAL DELI, INC.",3000.0,B,60641,PORTAGE PARK,15,17031151001,41.9458951009,-87.7566458523,"(41.9458951009, -87.7566458523)"
HARBOR MARKET,4200.0,B,60601,LOOP,32,17031320100,41.8847505385,-87.6156039565,"(41.8847505385, -87.6156039565)"
"SWEQI FOOD MART, INC.",2600.0,B,60639,HUMBOLDT PARK,23,17031230500,41.9099608832,-87.7288749604,"(41.9099608832, -87.7288749604)"
WALLY'S MARKET INC,33000.0,A,60634,DUNNING,17,17031170300,41.9527216579,-87.7913622126,"(41.9527216579, -87.7913622126)"
SAVEWAY FOOD,3000.0,B,60653,GRAND BOULEVARD,38,17031835800,41.8164863247,-87.61919683139999,"(41.8164863247, -87.6191968314)"
CARNICERIA&FRUTERIA EL MITOTE,4500.0,B,60641,HERMOSA,20,17031200100,41.9388195147,-87.73943380280001,"(41.9388195147, -87.7394338028)"
LEMEN SUN CORP.,3600.0,B,60616,ARMOUR SQUARE,34,17031340400,41.8416044818,-87.6319155034,"(41.8416044818, -87.6319155034)"
SUPER DOLLAR DISCOUNT,3500.0,B,60609,NEW CITY,61,17031611200,41.8066939242,-87.6647716526,"(41.8066939242, -87.6647716526)"
SAVE-A-LOT  #862,14800.0,A,60615,KENWOOD,39,17031390400,41.8094892465,-87.60641742940001,"(41.8094892465, -87.6064174294)"
TREASURE ISLAND FOODS,10001.0,A,60614,LINCOLN PARK,7,17031071500,41.9123117952,-87.63459885549999,"(41.9123117952, -87.6345988555)"
"OGIES FOOD, INC",10001.0,A,60629,CHICAGO LAWN,66,17031660900,41.7683658358,-87.68830090770001,"(41.7683658358, -87.6883009077)"
SUPERMERCADO EL GUERO #10 INC,10001.0,A,60632,BRIGHTON PARK,58,17031580600,41.8205830407,-87.69342616600001,"(41.8205830407, -87.693426166)"
TRADER JOE'S,15000.0,A,60613,NORTH CENTER,5,17031050600,41.9499611711,-87.6756711293,"(41.9499611711, -87.6756711293)"
DOMINICK'S,59488.0,A,60645,WEST RIDGE,2,17031020500,42.0022233751,-87.680128828,"(42.0022233751, -87.680128828)"
ALDI'S #08,16890.0,A,60619,GREATER GRAND CROSSING,69,17031691000,41.760880872,-87.6246657846,"(41.760880872, -87.6246657846)"
ALDI,15680.0,A,60660,EDGEWATER,77,17031030103,41.9952114602,-87.6602779929,"(41.9952114602, -87.6602779929)"
FAIRPLAY FOODS INC,18500.0,A,60643,MORGAN PARK,75,17031750500,41.691679204,-87.6797791725,"(41.691679204, -87.6797791725)"
HILLTOP LIQUORS MART,3200.0,B,60628,ROSELAND,49,17031490800,41.7072479748,-87.62005636399999,"(41.7072479748, -87.620056364)"
BIG APPLE FINER FOODS INC,9000.0,B,60614,LINCOLN PARK,7,17031071400,41.9249661791,-87.639926019,"(41.9249661791, -87.639926019)"
AVENUE FOOD MAR INC,18000.0,A,60634,DUNNING,17,17031171000,41.938237376,-87.7977603483,"(41.938237376, -87.7977603483)"
FRESH FARMS INTERNATIONAL,9500.0,B,60659,WEST RIDGE,2,17031020602,41.9977359091,-87.69592888049999,"(41.9977359091, -87.6959288805)"
LAKE VIEW FOODS INC,3100.0,B,60613,UPTOWN,3,17031032100,41.9570402995,-87.6547628922,"(41.9570402995, -87.6547628922)"
THE CELLAR,5000.0,B,60634,DUNNING,17,17031170900,41.936613132800005,-87.80684752110001,"(41.9366131328, -87.8068475211)"
MARIANO'S FRESH MARKET #8507,,A,60630,JEFFERSON PARK,11,17031110100,41.97871026,-87.75715377,"(41.97871026, -87.75715377)"
RAINBOW GROCERY,2500.0,B,60636,WEST ENGLEWOOD,67,17031671500,41.7683283348,-87.673819384,"(41.7683283348, -87.673819384)"
"CARNICERIA LA HACIENDA, INC.",4000.0,B,60629,CHICAGO LAWN,66,17031660400,41.786024401,-87.7106047774,"(41.786024401, -87.7106047774)"
CICERO DELI INC.,3600.0,B,60641,PORTAGE PARK,15,17031151002,41.93904667,-87.7470219655,"(41.93904667, -87.7470219655)"
K BUENA,3500.0,B,60629,WEST LAWN,65,17031650301,41.7713833198,-87.73095336889999,"(41.7713833198, -87.7309533689)"
JEWEL FOOD STORE #3210,23845.0,A,60610,NEAR NORTH SIDE,8,17031080202,41.9042652283,-87.6316032946,"(41.9042652283, -87.6316032946)"
NANCY FOODS INC,2500.0,B,60628,WEST PULLMAN,53,17031530600,41.6702523999,-87.62227195620001,"(41.6702523999, -87.6222719562)"
WINDY CITY INC,4225.0,B,60644,AUSTIN,25,17031252202,41.8759443554,-87.7452502275,"(41.8759443554, -87.7452502275)"
ONE STOP FOOD & LIQUOR STORE,58000.0,A,60653,KENWOOD,39,17031390100,41.8168651481,-87.5986888442,"(41.8168651481, -87.5986888442)"
D & A FOOD & LIQUOR,5500.0,B,60636,WEST ENGLEWOOD,67,17031670300,41.793554363,-87.6646375512,"(41.793554363, -87.6646375512)"
ULTRA FOODS,87600.0,A,60652,ASHBURN,70,17031700402,41.735274089499995,-87.7035112835,"(41.7352740895, -87.7035112835)"
PETE'S FRESH SUPERMARKET,75000.0,A,60608,SOUTH LAWNDALE,30,17031840700,41.852100653200004,-87.68905111059999,"(41.8521006532, -87.6890511106)"
CARNICERIA GUANAJUATO #3,9000.0,B,60618,AVONDALE,21,17031210800,41.938569715300005,-87.6979459455,"(41.9385697153, -87.6979459455)"
MINI MERCADO LA BETANIA,2640.0,B,60623,SOUTH LAWNDALE,30,17031301803,41.8403965367,-87.7306750125,"(41.8403965367, -87.7306750125)"
JERUSALEM LIQUORS,4500.0,B,60625,ALBANY PARK,14,17031140800,41.9683547002,-87.7073943249,"(41.9683547002, -87.7073943249)"
WALGREENS # 05192,,A,60617,SOUTH CHICAGO,46,17031461000,41.72833654,-87.55286024,"(41.72833654, -87.55286024)"
JEWEL FOOD STORE #3114,20860.0,A,60655,MOUNT GREENWOOD,74,17031740100,41.7063128446,-87.6997671192,"(41.7063128446, -87.6997671192)"
WALGREENS #11410,,A,60639,HUMBOLDT PARK,23,17031230400,41.91071448,-87.72621042,"(41.91071448, -87.72621042)"
TIERRA CALIENTE MARKET,3125.0,B,60622,WEST TOWN,24,17031241500,41.9071018181,-87.66773965530001,"(41.9071018181, -87.6677396553)"
QUALITY FOOD ON 71 ST INC,3000.0,B,60629,CHICAGO LAWN,66,17031661000,41.7645116769,-87.687986655,"(41.7645116769, -87.687986655)"
JEWEL FOOD STORE #3302,25431.0,A,60609,MCKINLEY PARK,59,17031590500,41.8275838968,-87.6824544425,"(41.8275838968, -87.6824544425)"
CERMAK PRODUCE,17000.0,A,60623,SOUTH LAWNDALE,30,17031840800,41.844366728699995,-87.7078980538,"(41.8443667287, -87.7078980538)"
